CTC1_L_00233001-01
1 65349U 23687OY  26037.47803241  .00000000  00000+0  00000-0 0  9999
2 65349  70.0000   0.0000 0000000   0.0000   0.0000 12.65579224    10
CTC1_L_00233001-02
1 65350U 23003FX  26037.47803241  .00000000  00000+0  00000-0 0  9993
2 65350  70.0000   0.0000 0000000   0.0000  90.0000 12.65579224    11
CTC1_L_00233001-03
1 65351U 23851TM  26037.47803241  .00000000  00000+0  00000-0 0  9995
2 65351  70.0000   0.0000 0000000   0.0000 180.0000 12.65579224    12
CTC1_L_00233001-04
1 65352U 23889FX  26037.47803241  .00000000  00000+0  00000-0 0  9997
2 65352  70.0000   0.0000 0000000   0.0000 270.0000 12.65579224    13
CTC1_L_00233002-01
1 65353U 26753JK  26037.47803241  .00000000  00000+0  00000-0 0  9991
2 65353  70.0000  12.0000 0000000   0.0000  12.0000 12.65579224    11
CTC1_L_00233002-02
1 65354U 25927LG  26037.47803241  .00000000  00000+0  00000-0 0  9994
2 65354  70.0000  12.0000 0000000   0.0000 102.0000 12.65579224    12
CTC1_L_00233002-03
1 65355U 24078AB  26037.47803241  .00000000  00000+0  00000-0 0  9991
2 65355  70.0000  12.0000 0000000   0.0000 192.0000 12.65579224    12
CTC1_L_00233002-04
1 65356U 22083FY  26037.47803241  .00000000  00000+0  00000-0 0  9996
2 65356  70.0000  12.0000 0000000   0.0000 282.0000 12.65579224    13
CTC1_L_00233003-01
1 65357U 23378WQ  26037.47803241  .00000000  00000+0  00000-0 0  9995
2 65357  70.0000  24.0000 0000000   0.0000  24.0000 12.65579224    11
CTC1_L_00233003-02
1 65358U 22466GK  26037.47803241  .00000000  00000+0  00000-0 0  9993
2 65358  70.0000  24.0000 0000000   0.0000 114.0000 12.65579224    12
CTC1_L_00233003-03
1 65359U 24243ZV  26037.47803241  .00000000  00000+0  00000-0 0  9999
2 65359  70.0000  24.0000 0000000   0.0000 204.0000 12.65579224    13
CTC1_L_00233003-04
1 65360U 23067QB  26037.47803241  .00000000  00000+0  00000-0 0  9994
2 65360  70.0000  24.0000 0000000   0.0000 294.0000 12.65579224    14
CTC1_L_00233004-01
1 65361U 25437LA  26037.47803241  .00000000  00000+0  00000-0 0  9998
2 65361  70.0000  36.0000 0000000   0.0000  36.0000 12.65579224    12
CTC1_L_00233004-02
1 65362U 23463HT  26037.47803241  .00000000  00000+0  00000-0 0  9996
2 65362  70.0000  36.0000 0000000   0.0000 126.0000 12.65579224    13
CTC1_L_00233004-03
1 65363U 26687YJ  26037.47803241  .00000000  00000+0  00000-0 0  9998
2 65363  70.0000  36.0000 0000000   0.0000 216.0000 12.65579224    14
CTC1_L_00233004-04
1 65364U 26773FQ  26037.47803241  .00000000  00000+0  00000-0 0  9995
2 65364  70.0000  36.0000 0000000   0.0000 306.0000 12.65579224    15
CTC1_L_00233005-01
1 65365U 23167YK  26037.47803241  .00000000  00000+0  00000-0 0  9990
2 65365  70.0000  48.0000 0000000   0.0000  48.0000 12.65579224    12
CTC1_L_00233005-02
1 65366U 25889XV  26037.47803241  .00000000  00000+0  00000-0 0  9994
2 65366  70.0000  48.0000 0000000   0.0000 138.0000 12.65579224    13
CTC1_L_00233005-03
1 65367U 23753FA  26037.47803241  .00000000  00000+0  00000-0 0  9993
2 65367  70.0000  48.0000 0000000   0.0000 228.0000 12.65579224    14
CTC1_L_00233005-04
1 65368U 25520KK  26037.47803241  .00000000  00000+0  00000-0 0  9998
2 65368  70.0000  48.0000 0000000   0.0000 318.0000 12.65579224    15
CTC1_L_00233006-01
1 65369U 24118DK  26037.47803241  .00000000  00000+0  00000-0 0  9991
2 65369  70.0000  60.0000 0000000   0.0000  60.0000 12.65579224    14
CTC1_L_00233006-02
1 65370U 25698QG  26037.47803241  .00000000  00000+0  00000-0 0  9997
2 65370  70.0000  60.0000 0000000   0.0000 150.0000 12.65579224    16
CTC1_L_00233006-03
1 65371U 22460D   26037.47803241  .00000000  00000+0  00000-0 0  9992
2 65371  70.0000  60.0000 0000000   0.0000 240.0000 12.65579224    17
CTC1_L_00233006-04
1 65372U 24017PB  26037.47803241  .00000000  00000+0  00000-0 0  9993
2 65372  70.0000  60.0000 0000000   0.0000 330.0000 12.65579224    18
CTC1_L_00233007-01
1 65373U 26877FN  26037.47803241  .00000000  00000+0  00000-0 0  9990
2 65373  70.0000  72.0000 0000000   0.0000  72.0000 12.65579224    15
CTC1_L_00233007-02
1 65374U 24454IV  26037.47803241  .00000000  00000+0  00000-0 0  9990
2 65374  70.0000  72.0000 0000000   0.0000 162.0000 12.65579224    16
CTC1_L_00233007-03
1 65375U 25005KL  26037.47803241  .00000000  00000+0  00000-0 0  9994
2 65375  70.0000  72.0000 0000000   0.0000 252.0000 12.65579224    17
CTC1_L_00233007-04
1 65376U 25969VI  26037.47803241  .00000000  00000+0  00000-0 0  9994
2 65376  70.0000  72.0000 0000000   0.0000 342.0000 12.65579224    18
CTC1_L_00233008-01
1 65377U 22367SS  26037.47803241  .00000000  00000+0  00000-0 0  9994
2 65377  70.0000  84.0000 0000000   0.0000  84.0000 12.65579224    15
CTC1_L_00233008-02
1 65378U 26753LP  26037.47803241  .00000000  00000+0  00000-0 0  9998
2 65378  70.0000  84.0000 0000000   0.0000 174.0000 12.65579224    16
CTC1_L_00233008-03
1 65379U 22949SJ  26037.47803241  .00000000  00000+0  00000-0 0  9992
2 65379  70.0000  84.0000 0000000   0.0000 264.0000 12.65579224    17
CTC1_L_00233008-04
1 65380U 23453G   26037.47803241  .00000000  00000+0  00000-0 0  9995
2 65380  70.0000  84.0000 0000000   0.0000 354.0000 12.65579224    19
CTC1_L_00233009-01
1 65381U 26264MX  26037.47803241  .00000000  00000+0  00000-0 0  9999
2 65381  70.0000  96.0000 0000000   0.0000  96.0000 12.65579224    16
CTC1_L_00233009-02
1 65382U 24363GX  26037.47803241  .00000000  00000+0  00000-0 0  9998
2 65382  70.0000  96.0000 0000000   0.0000 186.0000 12.65579224    17
CTC1_L_00233009-03
1 65383U 24626CW  26037.47803241  .00000000  00000+0  00000-0 0  9991
2 65383  70.0000  96.0000 0000000   0.0000 276.0000 12.65579224    18
CTC1_L_00233009-04
1 65384U 25718NV  26037.47803241  .00000000  00000+0  00000-0 0  9995
2 65384  70.0000  96.0000 0000000   0.0000   6.0000 12.65579224    10
CTC1_L_00233010-01
1 65385U 22853CU  26037.47803241  .00000000  00000+0  00000-0 0  9993
2 65385  70.0000 108.0000 0000000   0.0000 108.0000 12.65579224    18
CTC1_L_00233010-02
1 65386U 22768KN  26037.47803241  .00000000  00000+0  00000-0 0  9999
2 65386  70.0000 108.0000 0000000   0.0000 198.0000 12.65579224    18
CTC1_L_00233010-03
1 65387U 23814ME  26037.47803241  .00000000  00000+0  00000-0 0  9993
2 65387  70.0000 108.0000 0000000   0.0000 288.0000 12.65579224    19
CTC1_L_00233010-04
1 65388U 25188LP  26037.47803241  .00000000  00000+0  00000-0 0  9990
2 65388  70.0000 108.0000 0000000   0.0000  18.0000 12.65579224    11
CTC1_L_00233011-01
1 65389U 26468CF  26037.47803241  .00000000  00000+0  00000-0 0  9993
2 65389  70.0000 120.0000 0000000   0.0000 120.0000 12.65579224    10
CTC1_L_00233011-02
1 65390U 24846ZL  26037.47803241  .00000000  00000+0  00000-0 0  9993
2 65390  70.0000 120.0000 0000000   0.0000 210.0000 12.65579224    12
CTC1_L_00233011-03
1 65391U 24645IT  26037.47803241  .00000000  00000+0  00000-0 0  9991
2 65391  70.0000 120.0000 0000000   0.0000 300.0000 12.65579224    13
CTC1_L_00233011-04
1 65392U 26939MM  26037.47803241  .00000000  00000+0  00000-0 0  9990
2 65392  70.0000 120.0000 0000000   0.0000  30.0000 12.65579224    14
CTC1_L_00233012-01
1 65393U 26981YC  26037.47803241  .00000000  00000+0  00000-0 0  9998
2 65393  70.0000 132.0000 0000000   0.0000 132.0000 12.65579224    11
CTC1_L_00233012-02
1 65394U 23532C   26037.47803241  .00000000  00000+0  00000-0 0  9998
2 65394  70.0000 132.0000 0000000   0.0000 222.0000 12.65579224    12
CTC1_L_00233012-03
1 65395U 24757Z   26037.47803241  .00000000  00000+0  00000-0 0  9999
2 65395  70.0000 132.0000 0000000   0.0000 312.0000 12.65579224    13
CTC1_L_00233012-04
1 65396U 24916SM  26037.47803241  .00000000  00000+0  00000-0 0  9997
2 65396  70.0000 132.0000 0000000   0.0000  42.0000 12.65579224    14
CTC1_L_00233013-01
1 65397U 25407FP  26037.47803241  .00000000  00000+0  00000-0 0  9994
2 65397  70.0000 144.0000 0000000   0.0000 144.0000 12.65579224    11
CTC1_L_00233013-02
1 65398U 24490LD  26037.47803241  .00000000  00000+0  00000-0 0  9996
2 65398  70.0000 144.0000 0000000   0.0000 234.0000 12.65579224    12
CTC1_L_00233013-03
1 65399U 22639ZO  26037.47803241  .00000000  00000+0  00000-0 0  9990
2 65399  70.0000 144.0000 0000000   0.0000 324.0000 12.65579224    13
CTC1_L_00233013-04
1 65400U 24849NT  26037.47803241  .00000000  00000+0  00000-0 0  9998
2 65400  70.0000 144.0000 0000000   0.0000  54.0000 12.65579224    16
CTC1_L_00233014-01
1 65401U 25772NI  26037.47803241  .00000000  00000+0  00000-0 0  9995
2 65401  70.0000 156.0000 0000000   0.0000 156.0000 12.65579224    13
CTC1_L_00233014-02
1 65402U 24364XX  26037.47803241  .00000000  00000+0  00000-0 0  9992
2 65402  70.0000 156.0000 0000000   0.0000 246.0000 12.65579224    14
CTC1_L_00233014-03
1 65403U 24340LQ  26037.47803241  .00000000  00000+0  00000-0 0  9997
2 65403  70.0000 156.0000 0000000   0.0000 336.0000 12.65579224    15
CTC1_L_00233014-04
1 65404U 24240XC  26037.47803241  .00000000  00000+0  00000-0 0  9997
2 65404  70.0000 156.0000 0000000   0.0000  66.0000 12.65579224    16
CTC1_L_00233015-01
1 65405U 26203RY  26037.47803241  .00000000  00000+0  00000-0 0  9999
2 65405  70.0000 168.0000 0000000   0.0000 168.0000 12.65579224    13
CTC1_L_00233015-02
1 65406U 26331JG  26037.47803241  .00000000  00000+0  00000-0 0  9992
2 65406  70.0000 168.0000 0000000   0.0000 258.0000 12.65579224    14
CTC1_L_00233015-03
1 65407U 24077DN  26037.47803241  .00000000  00000+0  00000-0 0  9998
2 65407  70.0000 168.0000 0000000   0.0000 348.0000 12.65579224    15
CTC1_L_00233015-04
1 65408U 26974GB  26037.47803241  .00000000  00000+0  00000-0 0  9997
2 65408  70.0000 168.0000 0000000   0.0000  78.0000 12.65579224    16
CTC1_L_00233016-01
1 65409U 25767RQ  26037.47803241  .00000000  00000+0  00000-0 0  9997
2 65409  70.0000 180.0000 0000000   0.0000 180.0000 12.65579224    15
CTC1_L_00233016-02
1 65410U 26355EU  26037.47803241  .00000000  00000+0  00000-0 0  9993
2 65410  70.0000 180.0000 0000000   0.0000 270.0000 12.65579224    17
